
    {
      "objectName": "STARLINK-36583",
      "objectId": "2026-014P",
      "noradId": 67545,
      "epochUtc": "2026-03-16T04:34:19.378848Z",
      "meanMotionRevPerDay": 15.75153633,
      "eccentricity": 0.00016934,
      "inclinationDeg": 97.2835,
      "raanDeg": 320.3934,
      "argPerigeeDeg": 81.2501,
      "meanAnomalyDeg": 278.8956,
      "bstar": 0.001325892,
      "meanMotionDot": 0.0020207,
      "meanMotionDdot": 0,
      "elementSetNo": 999,
      "revAtEpoch": 959
    },
    {
      "objectName": "STARLINK-36580",
      "objectId": "2026-014Q",
      "noradId": 67546,
      "epochUtc": "2026-03-16T14:48:46.587168Z",
      "meanMotionRevPerDay": 15.75241694,
      "eccentricity": 0.0001753,
      "inclinationDeg": 97.2846,
      "raanDeg": 320.8854,
      "argPerigeeDeg": 92.6241,
      "meanAnomalyDeg": 267.5225,
      "bstar": 0.00086196,
      "meanMotionDot": 0.00130717,
      "meanMotionDdot": 0,
      "elementSetNo": 999,
      "revAtEpoch": 966
    },
    {
      "objectName": "STARLINK-36564",
      "objectId": "2026-014T",
      "noradId": 67549,
      "epochUtc": "2026-03-16T15:00:27.953856Z",
      "meanMotionRevPerDay": 15.75266655,
      "eccentricity": 0.000178,
      "inclinationDeg": 97.285,
      "raanDeg": 320.8753,
      "argPerigeeDeg": 106.047,
      "meanAnomalyDeg": 254.0991,
      "bstar": 0.0013105,
      "meanMotionDot": 0.00200672,
      "meanMotionDdot": 0,
      "elementSetNo": 999,
      "revAtEpoch": 960
    },
    {
      "objectName": "STARLINK-36559",
      "objectId": "2026-014Z",
      "noradId": 67555,
      "epochUtc": "2026-03-16T05:48:32.985216Z",
      "meanMotionRevPerDay": 15.75416021,
      "eccentricity": 0.00018435,
      "inclinationDeg": 97.2858,
      "raanDeg": 320.4762,
      "argPerigeeDeg": 45.7859,
      "meanAnomalyDeg": 314.3558,
      "bstar": 0.0027537237,
      "meanMotionDot": 0.00436558,
      "meanMotionDdot": 0,
      "elementSetNo": 999,
      "revAtEpoch": 959
    },
    {
      "objectName": "STARLINK-36621",
      "objectId": "2026-016A",
      "noradId": 67561,
      "epochUtc": "2026-03-16T14:06:15.428448Z",
      "meanMotionRevPerDay": 15.75296868,
      "eccentricity": 0.0001389,
      "inclinationDeg": 97.2839,
      "raanDeg": 136.3292,
      "argPerigeeDeg": 38.9767,
      "meanAnomalyDeg": 321.1598,
      "bstar": 0.0018911,
      "meanMotionDot": 0.00293189,
      "meanMotionDdot": 0,
      "elementSetNo": 999,
      "revAtEpoch": 788
    },
    {
      "objectName": "STARLINK-36398",
      "objectId": "2026-016B",
      "noradId": 67562,
      "epochUtc": "2026-03-16T14:16:55.460640Z",
      "meanMotionRevPerDay": 15.75253439,
      "eccentricity": 0.0000531,
      "inclinationDeg": 97.2844,
      "raanDeg": 136.3191,
      "argPerigeeDeg": 110.7182,
      "meanAnomalyDeg": 249.414,
      "bstar": 0.0012533,
      "meanMotionDot": 0.00191591,
      "meanMotionDdot": 0,
      "elementSetNo": 999,
      "revAtEpoch": 788
    },
    {
      "objectName": "STARLINK-36594",
      "objectId": "2026-016P",
      "noradId": 67574,
      "epochUtc": "2026-03-16T14:26:04.744320Z",
      "meanMotionRevPerDay": 15.75284806,
      "eccentricity": 0.0000889,
      "inclinationDeg": 97.2848,
      "raanDeg": 136.464,
      "argPerigeeDeg": 17.0283,
      "meanAnomalyDeg": 343.1012,
      "bstar": 0.0015008,
      "meanMotionDot": 0.00230822,
      "meanMotionDdot": 0,
      "elementSetNo": 999,
      "revAtEpoch": 789
    },
    {
      "objectName": "STARLINK-36590",
      "objectId": "2026-016S",
      "noradId": 67577,
      "epochUtc": "2026-03-16T14:57:34.473888Z",
      "meanMotionRevPerDay": 15.75230505,
      "eccentricity": 0.0002814,
      "inclinationDeg": 97.2841,
      "raanDeg": 136.434,
      "argPerigeeDeg": 47.4674,
      "meanAnomalyDeg": 312.6828,
      "bstar": 0.0018119,
      "meanMotionDot": 0.0027967,
      "meanMotionDdot": 0,
      "elementSetNo": 999,
      "revAtEpoch": 789
    },
    {
      "objectName": "STARLINK-36632",
      "objectId": "2026-016W",
      "noradId": 67581,
      "epochUtc": "2026-03-16T14:45:54.301248Z",
      "meanMotionRevPerDay": 15.7531768,
      "eccentricity": 0.000185,
      "inclinationDeg": 97.284,
      "raanDeg": 136.4454,
      "argPerigeeDeg": 58.6043,
      "meanAnomalyDeg": 301.5403,
      "bstar": 0.0022805,
      "meanMotionDot": 0.00356584,
      "meanMotionDdot": 0,
      "elementSetNo": 999,
      "revAtEpoch": 789
    },
    {
      "objectName": "STARLINK-36609",
      "objectId": "2026-016X",
      "noradId": 67582,
      "epochUtc": "2026-03-16T02:56:55.609440Z",
      "meanMotionRevPerDay": 15.75241387,
      "eccentricity": 0.00021142,
      "inclinationDeg": 97.2836,
      "raanDeg": 135.8893,
      "argPerigeeDeg": 0.3946,
      "meanAnomalyDeg": 359.7321,
      "bstar": 0.0010243122,
      "meanMotionDot": 0.00155824,
      "meanMotionDdot": 0,
      "elementSetNo": 999,
      "revAtEpoch": 781
    },
    {
      "objectName": "STARLINK-36376",
      "objectId": "2026-018B",
      "noradId": 67590,
      "epochUtc": "2026-03-16T20:00:01.999008Z",
      "meanMotionRevPerDay": 15.49214648,
      "eccentricity": 0.0001816,
      "inclinationDeg": 97.2861,
      "raanDeg": 141.8345,
      "argPerigeeDeg": 57.7948,
      "meanAnomalyDeg": 238.4325,
      "bstar": -0.00044583,
      "meanMotionDot": -0.00024286,
      "meanMotionDdot": 0,
      "elementSetNo": 999,
      "revAtEpoch": 605
    },
    {
      "objectName": "STARLINK-36391",
      "objectId": "2026-018C",
      "noradId": 67591,
      "epochUtc": "2026-03-16T20:00:01.999008Z",
      "meanMotionRevPerDay": 15.4313285,
      "eccentricity": 0.0001648,
      "inclinationDeg": 97.284,
      "raanDeg": 141.8828,
      "argPerigeeDeg": 84.5547,
      "meanAnomalyDeg": 306.5872,
      "bstar": -0.046953,
      "meanMotionDot": -0.01866576,
      "meanMotionDdot": 0,
      "elementSetNo": 999,
      "revAtEpoch": 605
    },
    {
      "objectName": "STARLINK-36634",
      "objectId": "2026-018E",
      "noradId": 67593,
      "epochUtc": "2026-03-16T20:00:01.999008Z",
      "meanMotionRevPerDay": 15.49519348,
      "eccentricity": 0.000151,
      "inclinationDeg": 97.2846,
      "raanDeg": 141.9008,
      "argPerigeeDeg": 67.8887,
      "meanAnomalyDeg": 23.4739,
      "bstar": -0.011728,
      "meanMotionDot": -0.00598646,
      "meanMotionDdot": 0,
      "elementSetNo": 999,
      "revAtEpoch": 605
    }