STARLINK-36583          
1 67545U 26014P   26075.19050207  .00202070  00000+0  13259-2 0  9996
2 67545  97.2835 320.3934 0001693  81.2501 278.8956 15.75153633  9590
STARLINK-36580          
1 67546U 26014Q   26075.61720587  .00130717  00000+0  86196-3 0  9998
2 67546  97.2846 320.8854 0001753  92.6241 267.5225 15.75241694  9660
STARLINK-36564          
1 67549U 26014T   26075.62532354  .00200672  00000+0  13105-2 0  9992
2 67549  97.2850 320.8753 0001780 106.0470 254.0991 15.75266655  9609
STARLINK-36559          
1 67555U 26014Z   26075.24204844  .00436558  00000+0  27537-2 0  9995
2 67555  97.2858 320.4762 0001843  45.7859 314.3558 15.75416021  9591
STARLINK-36621          
1 67561U 26016A   26075.58767857  .00293189  00000+0  18911-2 0  9996
2 67561  97.2839 136.3292 0001389  38.9767 321.1598 15.75296868  7881
STARLINK-36398          
1 67562U 26016B   26075.59508635  .00191591  00000+0  12533-2 0  9993
2 67562  97.2844 136.3191 0000531 110.7182 249.4140 15.75253439  7886
STARLINK-36594          
1 67574U 26016P   26075.60144380  .00230822  00000+0  15008-2 0  9992
2 67574  97.2848 136.4640 0000889  17.0283 343.1012 15.75284806  7893
STARLINK-36590          
1 67577U 26016S   26075.62331567  .00279670  00000+0  18119-2 0  9992
2 67577  97.2841 136.4340 0002814  47.4674 312.6828 15.75230505  7890
STARLINK-36632          
1 67581U 26016W   26075.61521182  .00356584  00000+0  22805-2 0  9997
2 67581  97.2840 136.4454 0001850  58.6043 301.5403 15.75317680  7899
STARLINK-36609          
1 67582U 26016X   26075.12286585  .00155824  00000+0  10243-2 0  9996
2 67582  97.2836 135.8893 0002114   0.3946 359.7321 15.75241387  7811
STARLINK-36376          
1 67590U 26018B   26075.83335647 -.00024286  00000+0 -44583-3 0  9993
2 67590  97.2861 141.8345 0001816  57.7948 238.4325 15.49214648  6056
STARLINK-36391          
1 67591U 26018C   26075.83335647 -.01866576  00000+0 -46953-1 0  9992
2 67591  97.2840 141.8828 0001648  84.5547 306.5872 15.43132850  6058
STARLINK-36634          
1 67593U 26018E   26075.83335647 -.00598646  00000+0 -11728-1 0  9995
2 67593  97.2846 141.9008 0001510  67.8887  23.4739 15.49519348  6050
